NORAD_CAT_ID,OBJECT_NAME,OBJECT_TYPE,EPOCH,MEAN_MOTION,ECCENTRICITY,INCLINATION,RA_OF_ASC_NODE,ARG_OF_PERICENTER,MEAN_ANOMALY,BSTAR,MEAN_MOTION_DOT,MEAN_MOTION_DDOT,TLE_LINE0,TLE_LINE1,TLE_LINE2,SEMIMAJOR_AXIS,PERIOD,APOGEE,PERIGEE,DECAYED
51744.0,STARLINK-3452,PAYLOAD,2022-10-23 10:17:05,15.08847711,0.0001868,53.2185,95.4456,50.0371,310.0785,7.1351e-05,8.48e-06,0.0,0 STARLINK-3452,1 51744U 22016AG  22296.42853195  .00000848  00000-0  71351-4 0  9991,2 51744  53.2185  95.4456 0001868  50.0371 310.0785 15.08847711 37386,6917.857,95.437,541.014,538.43,0.0
51744.0,STARLINK-3452,PAYLOAD,2022-10-23 18:14:01,15.08840834,0.0001849,53.2186,93.9588,49.848,310.2674,3.5639e-05,2.79e-06,0.0,0 STARLINK-3452,1 51744U 22016AG  22296.75973663  .00000279  00000-0  35639-4 0  9997,2 51744  53.2186  93.9588 0001849  49.8480 310.2674 15.08840834 37436,6917.878000000002,95.438,541.0219999999998,538.464,0.0
51744.0,STARLINK-3452,PAYLOAD,2022-10-24 03:46:19,15.08841159,0.0001844,53.2189,92.1751,50.4275,309.6879,0.00010968,1.458e-05,0.0,0 STARLINK-3452,1 51744U 22016AG  22297.15717433  .00001458  00000-0  10968-3 0  9990,2 51744  53.2189  92.1751 0001844  50.4275 309.6879 15.08841159 38551,6917.877,95.437,541.018,538.466,0.0
51744.0,STARLINK-3452,PAYLOAD,2022-10-24 10:07:52,15.08840289,0.0001751,53.2192,90.9853,53.9499,306.1655,-1.6136e-05,-5.45e-06,0.0,0 STARLINK-3452,1 51744U 22016AG  22297.42213893 -.00000545  00000-0 -16136-4 0  9993,2 51744  53.2192  90.9853 0001751  53.9499 306.1655 15.08840289 37531,6917.88,95.438,540.956,538.533,0.0
51744.0,STARLINK-3452,PAYLOAD,2022-10-24 16:29:25,15.0883756,0.0001716,53.2192,89.7957,54.5673,305.5479,-4.5733e-05,-1.016e-05,0.0,0 STARLINK-3452,1 51744U 22016AG  22297.68710124 -.00001016  00000-0 -45733-4 0  9999,2 51744  53.2192  89.7957 0001716  54.5673 305.5479 15.08837560 37573,6917.888000000001,95.438,540.94,538.566,0.0
51744.0,STARLINK-3452,PAYLOAD,2022-10-24 19:40:11,15.08838446,0.0001720999999999,53.2193,89.2011,53.8222,306.2929,-3.9264e-05,-9.13e-06,0.0,0 STARLINK-3452,1 51744U 22016AG  22297.81958051 -.00000913  00000-0 -39264-4 0  9994,2 51744  53.2193  89.2011 0001721  53.8222 306.2929 15.08838446 38650,6917.885,95.438,540.941,538.56,0.0
51744.0,STARLINK-3452,PAYLOAD,2022-10-25 03:37:07,15.08839612,0.0001724,53.2193,87.7142,53.7345,306.3806,-2.8735e-05,-7.45e-06,0.0,0 STARLINK-3452,1 51744U 22016AG  22298.15077909 -.00000745  00000-0 -28735-4 0  9990,2 51744  53.2193  87.7142 0001724  53.7345 306.3806 15.08839612 37645,6917.882,95.438,540.939,538.554,0.0
51744.0,STARLINK-3452,PAYLOAD,2022-10-25 16:20:12,15.08836109,0.00018,53.2196,85.3359,54.1295,305.9864,1.1367e-05,-1.07e-06,0.0,0 STARLINK-3452,1 51744U 22016AG  22298.68070061 -.00000107  00000-0  11367-4 0  9994,2 51744  53.2196  85.3359 0001800  54.1295 305.9864 15.08836109 37722,6917.892,95.438,541.003,538.512,0.0
51744.0,STARLINK-3452,PAYLOAD,2022-10-26 03:27:54,15.08833612,0.0001911,53.219,83.2549,49.7159,310.4,-4.9268e-05,-1.072e-05,0.0,0 STARLINK-3452,1 51744U 22016AG  22299.14438375 -.00001072  00000-0 -49268-4 0  9996,2 51744  53.2190  83.2549 0001911  49.7159 310.4000 15.08833612 38850,6917.9,95.438,541.087,538.443,0.0
51744.0,STARLINK-3452,PAYLOAD,2022-10-26 11:24:50,15.08831788,0.0001843,53.219,81.7681,46.5758,313.5388,4.4377e-05,4.18e-06,0.0,0 STARLINK-3452,1 51744U 22016AG  22299.47558252  .00000418  00000-0  44377-4 0  9996,2 51744  53.2190  81.7681 0001843  46.5758 313.5388 15.08831788 37847,6917.905,95.438,541.045,538.496,0.0
51744.0,STARLINK-3452,PAYLOAD,2022-10-26 19:21:45,15.08837421,0.0001909,53.2193,80.2818,45.8497,314.2652,7.340000000000001e-05,8.8e-06,0.0,0 STARLINK-3452,1 51744U 22016AG  22299.80677944  .00000880  00000-0  73400-4 0  9995,2 51744  53.2193  80.2818 0001909  45.8497 314.2652 15.08837421 37898,6917.888000000001,95.438,541.0740000000002,538.433,0.0
51744.0,STARLINK-3452,PAYLOAD,2022-10-27 09:40:13,15.08843877,0.0001947,53.2192,77.60600000000002,44.5824,315.5325,4.175e-05,3.76e-06,0.0,0 STARLINK-3452,1 51744U 22016AG  22300.40293656  .00000376  00000-0  41750-4 0  9991,2 51744  53.2192  77.6060 0001947  44.5824 315.5325 15.08843877 37981,6917.869000000002,95.437,541.08,538.387,0.0
51744.0,STARLINK-3452,PAYLOAD,2022-10-27 16:01:46,15.08839853,0.0001878,53.2194,76.4161,45.7043,314.4103,6.444400000000001e-06,-1.86e-06,0.0,0 STARLINK-3452,1 51744U 22016AG  22300.66789978 -.00000186  00000-0  64444-5 0  9992,2 51744  53.2194  76.4161 0001878  45.7043 314.4103 15.08839853 38028,6917.880999999999,95.438,541.045,538.447,0.0
51744.0,STARLINK-3452,PAYLOAD,2022-10-27 20:47:55,15.08836055,0.0001899999999999,53.2192,75.5239,46.1847,313.9302,7.6253e-05,9.26e-06,0.0,0 STARLINK-3452,1 51744U 22016AG  22300.86661980  .00000926  00000-0  76253-4 0  9997,2 51744  53.2192  75.5239 0001900  46.1847 313.9302 15.08836055 39112,6917.892,95.438,541.072,538.443,0.0
51744.0,STARLINK-3452,PAYLOAD,2022-10-28 12:41:47,15.08841159,0.0001943,53.2198,72.5509,49.2848,310.8313,7.208199999999999e-05,8.59e-06,0.0,0 STARLINK-3452,1 51744U 22016AG  22301.52901760  .00000859  00000-0  72082-4 0  9995,2 51744  53.2198  72.5509 0001943  49.2848 310.8313 15.08841159 38159,6917.877,95.437,541.086,538.398,0.0
51744.0,STARLINK-3452,PAYLOAD,2022-10-28 19:03:19,15.08838288,0.0001963,53.2202,71.3624,47.7113,312.4046,1.7112e-05,-1.6e-07,0.0,0 STARLINK-3452,1 51744U 22016AG  22301.79398104 -.00000016  00000-0  17112-4 0  9995,2 51744  53.2202  71.3624 0001963  47.7113 312.4046 15.08838288 38194,6917.886,95.438,541.109,538.393,0.0
51744.0,STARLINK-3452,PAYLOAD,2022-10-29 01:24:52,15.08834525,0.0001979,53.2197,70.1726,45.7487,314.3667,-3.9011e-05,-9.09e-06,0.0,0 STARLINK-3452,1 51744U 22016AG  22302.05894551 -.00000909  00000-0 -39011-4 0  9996,2 51744  53.2197  70.1726 0001979  45.7487 314.3667 15.08834525 38231,6917.897,95.438,541.131,538.393,0.0
51744.0,STARLINK-3452,PAYLOAD,2022-10-29 18:54:07,15.08836616,0.0001935,53.2197,66.9009,44.047,316.0676,2.1074e-05,4.7e-07,0.0,0 STARLINK-3452,1 51744U 22016AG  22302.78758351  .00000047  00000-0  21074-4 0  9994,2 51744  53.2197  66.9009 0001935  44.0470 316.0676 15.08836616 38348,6917.891,95.438,541.094,538.4169999999998,0.0
51744.0,STARLINK-3452,PAYLOAD,2022-10-30 10:47:59,15.08830355,0.0001952,53.2198,63.9275,47.0769,313.0387,-4.0058e-05,-9.25e-06,0.0,0 STARLINK-3452,1 51744U 22016AG  22303.44999203 -.00000925  00000-0 -40058-4 0  9991,2 51744  53.2198  63.9275 0001952  47.0769 313.0387 15.08830355 38445,6917.91,95.438,541.125,538.424,0.0
51744.0,STARLINK-3452,PAYLOAD,2022-10-30 17:09:31,15.08831559,0.0001984,53.2195,62.7378,46.4694,313.6463,-2.036e-05,-6.12e-06,0.0,0 STARLINK-3452,1 51744U 22016AG  22303.71495232 -.00000612  00000-0 -20360-4 0  9991,2 51744  53.2195  62.7378 0001984  46.4694 313.6463 15.08831559 38480,6917.906,95.438,541.144,538.399,0.0
51744.0,STARLINK-3452,PAYLOAD,2022-10-31 10:38:46,15.08829855,0.0001903,53.2198,59.4667,41.8448,318.2689,3.0529e-05,1.98e-06,0.0,0 STARLINK-3452,1 51744U 22016AG  22304.44359666  .00000198  00000-0  30529-4 0  9997,2 51744  53.2198  59.4667 0001903  41.8448 318.2689 15.08829855 38593,6917.911,95.438,541.0930000000002,538.46,0.0
51744.0,STARLINK-3452,PAYLOAD,2022-10-31 17:00:19,15.08831197,0.0001966999999999,53.2202,58.2785,44.1067,316.0081,4.5284e-05,4.32e-06,0.0,0 STARLINK-3452,1 51744U 22016AG  22304.70855739  .00000432  00000-0  45284-4 0  9993,2 51744  53.2202  58.2785 0001967  44.1067 316.0081 15.08831197 38639,6917.906999999997,95.438,541.133,538.4119999999998,0.0
51744.0,STARLINK-3452,PAYLOAD,2022-11-01 00:57:14,15.08843582,0.0001949,53.2204,56.7909,41.3581,318.7559,0.00012661,1.728e-05,0.0,0 STARLINK-3452,1 51744U 22016AG  22305.03974803  .00001728  00000-0  12661-3 0  9995,2 51744  53.2204  56.7909 0001949  41.3581 318.7559 15.08843582 39745,6917.869000000002,95.437,541.0830000000002,538.386,0.0
51744.0,STARLINK-3452,PAYLOAD,2022-11-01 13:40:19,15.08843144,0.0001895,53.2205,54.412,41.0046,319.1088,0.00015214,2.134e-05,0.0,0 STARLINK-3452,1 51744U 22016AG  22305.56966915  .00002134  00000-0  15214-3 0  9997,2 51744  53.2205  54.4120 0001895  41.0046 319.1088 15.08843144 38766,6917.871,95.437,541.047,538.425,0.0
51744.0,STARLINK-3452,PAYLOAD,2022-11-01 16:51:05,15.08847052,0.0001954,53.2208,53.8179,46.1848,313.9306,0.00019488,2.815e-05,0.0,0 STARLINK-3452,1 51744U 22016AG  22305.70214587  .00002815  00000-0  19488-3 0  9997,2 51744  53.2208  53.8179 0001954  46.1848 313.9306 15.08847052 38787,6917.859,95.437,541.076,538.372,0.0
51744.0,STARLINK-3452,PAYLOAD,2022-11-02 13:31:07,15.08827029,0.0001834,53.221,49.952,31.1667,328.9434,1.3291e-05,-7.7e-07,0.0,0 STARLINK-3452,1 51744U 22016AG  22306.56328188 -.00000077  00000-0  13291-4 0  9991,2 51744  53.2210  49.9520 0001834  31.1667 328.9434 15.08827029 39978,6917.92,95.438,541.054,538.516,0.0
51744.0,STARLINK-3452,PAYLOAD,2022-11-02 16:41:53,15.088301800000002,0.0002165,53.2193,49.3582,31.7507,328.3615,1.0098e-05,-1.28e-06,0.0,0 STARLINK-3452,1 51744U 22016AG  22306.69576112 -.00000128  00000-0  10098-4 0  9996,2 51744  53.2193  49.3582 0002165  31.7507 328.3615 15.08830180 38939,6917.91,95.438,541.273,538.278,0.0
51744.0,STARLINK-3452,PAYLOAD,2022-11-03 11:46:30,15.08849011,0.0002163,53.2201,45.79,37.8842,322.2302,4.8117e-05,4.78e-06,0.0,0 STARLINK-3452,1 51744U 22016AG  22307.49062720  .00000478  00000-0  48117-4 0  9990,2 51744  53.2201  45.7900 0002163  37.8842 322.2302 15.08849011 40112,6917.853,95.437,541.214,538.222,0.0
51744.0,STARLINK-3452,PAYLOAD,2022-11-04 13:12:39,15.08841392,0.0002029,53.2195,41.0322,30.0091,330.1017,0.0001702,2.422e-05,0.0,0 STARLINK-3452,1 51744U 22016AG  22308.55045833  .00002422  00000-0  17020-3 0  9993,2 51744  53.2195  41.0322 0002029  30.0091 330.1017 15.08841392 40275,6917.876,95.437,541.145,538.337,0.0
